NORAD_CAT_ID,OBJECT_NAME,OBJECT_TYPE,EPOCH,MEAN_MOTION,ECCENTRICITY,INCLINATION,RA_OF_ASC_NODE,ARG_OF_PERICENTER,MEAN_ANOMALY,BSTAR,MEAN_MOTION_DOT,MEAN_MOTION_DDOT,TLE_LINE0,TLE_LINE1,TLE_LINE2,SEMIMAJOR_AXIS,PERIOD,APOGEE,PERIGEE,DECAYED
49748.0,STARLINK-3248,PAYLOAD,2022-01-21 22:00:00,15.40435309,0.0002566,53.2167,81.8393,20.7724,19.9791,0.00061387,0.00024902,0.0,0 STARLINK-3248,1 49748U 21115AA  22021.91667824  .00024902  00000-0  61387-3 0  9997,2 49748  53.2167  81.8393 0002566  20.7724  19.9791 15.40435309  8964,6822.9609999999975,93.48,446.576,443.075,0.0
49748.0,STARLINK-3248,PAYLOAD,2022-01-22 04:00:00,15.40452262,0.0002537,53.2169,80.6609,22.3652,325.5578,0.001136,0.00046586,0.0,0 STARLINK-3248,1 49748U 21115AA  22022.16667824  .00046586  00000-0  11360-2 0  9992,2 49748  53.2169  80.6609 0002537  22.3652 325.5578 15.40452262  3623,6822.911,93.479,446.507,443.045,0.0
49748.0,STARLINK-3248,PAYLOAD,2022-01-22 22:00:00,15.40475947,0.0002648,53.2172,77.1272,19.0142,170.5501,0.00048809,0.0001973,0.0,0 STARLINK-3248,1 49748U 21115AA  22022.91667824  .00019730  00000-0  48809-3 0  9995,2 49748  53.2172  77.1272 0002648  19.0142 170.5501 15.40475947  3634,6822.840999999999,93.478,446.512,442.899,0.0
49748.0,STARLINK-3248,PAYLOAD,2022-01-23 06:00:00,15.40508564,0.0002677,53.2174,75.5568,21.5491,217.6212,-0.0011867,-0.00048975,0.0,0 STARLINK-3248,1 49748U 21115AA  22023.25001157 -.00048975  00000-0 -11867-2 0  9992,2 49748  53.2174  75.5568 0002677  21.5491 217.6212 15.40508564  9161,6822.744000000002,93.476,446.436,442.783,0.0
49748.0,STARLINK-3248,PAYLOAD,2022-01-23 14:00:01,15.40456225,0.0002877,53.2175,73.9876,17.447,271.3502,-6.7339e-06,-6.81e-06,0.0,0 STARLINK-3248,1 49748U 21115AA  22023.58334491 -.00000681  00000-0 -67339-5 0  9998,2 49748  53.2175  73.9876 0002877  17.4470 271.3502 15.40456225  3630,6822.899,93.479,446.727,442.801,0.0
49748.0,STARLINK-3248,PAYLOAD,2022-01-23 22:00:00,15.40422304,0.0002666,53.2175,72.4151,16.4147,321.9775,0.0010389,0.00042504,0.0,0 STARLINK-3248,1 49748U 21115AA  22023.91667824  .00042504  00000-0  10389-2 0  9992,2 49748  53.2175  72.4151 0002666  16.4147 321.9775 15.40422304  3631,6822.999,93.481,446.6830000000001,443.045,0.0
49748.0,STARLINK-3248,PAYLOAD,2022-01-24 06:00:02,15.40479824,0.00027,53.2177,70.8451,16.6719,11.3309,-0.0011592,-0.00047811,0.0,0 STARLINK-3248,1 49748U 21115AA  22024.25002315 -.00047811  00000-0 -11592-2 0  9993,2 49748  53.2177  70.8451 0002700  16.6719  11.3309 15.40479824  9328,6822.829000000002,93.477,446.536,442.852,0.0
49748.0,STARLINK-3248,PAYLOAD,2022-01-24 14:00:01,15.40433854,0.0002923,53.2173,69.2759,14.2334,63.289,0.00065459,0.00026586,0.0,0 STARLINK-3248,1 49748U 21115AA  22024.58334491  .00026586  00000-0  65459-3 0  9998,2 49748  53.2173  69.2759 0002923  14.2334  63.2890 15.40433854  3644,6822.965,93.48,446.824,442.836,0.0
49748.0,STARLINK-3248,PAYLOAD,2022-01-24 22:00:00,15.40427042,0.0002694,53.2173,67.7036,15.1987,111.894,0.00068786,0.00027956,0.0,0 STARLINK-3248,1 49748U 21115AA  22024.91667824  .00027956  00000-0  68786-3 0  9992,2 49748  53.2173  67.7036 0002694  15.1987 111.8940 15.40427042  9424,6822.985,93.481,446.68800000000016,443.012,0.0
49748.0,STARLINK-3248,PAYLOAD,2022-01-25 14:00:01,15.40430446,0.0002975,53.217,64.5646,18.364,207.8628,0.0016988,0.00070033,0.0,0 STARLINK-3248,1 49748U 21115AA  22025.58334491  .00070033  00000-0  16988-2 0  9997,2 49748  53.2170  64.5646 0002975  18.3640 207.8628 15.40430446  3623,6822.975,93.48,446.87,442.81,0.0
49748.0,STARLINK-3248,PAYLOAD,2022-01-25 22:00:00,15.40469508,0.0002704,53.2171,62.9922,20.0035,255.823,0.0010517,0.00043104,0.0,0 STARLINK-3248,1 49748U 21115AA  22025.91667824  .00043104  00000-0  10517-2 0  9994,2 49748  53.2171  62.9922 0002704  20.0035 255.8230 15.40469508  3668,6822.86,93.478,446.57,442.88,0.0
49748.0,STARLINK-3248,PAYLOAD,2022-01-26 06:00:00,15.405003699999998,0.0002755,53.2172,61.4224,20.4678,304.9712,-0.001367,-0.00056286,0.0,0 STARLINK-3248,1 49748U 21115AA  22026.25001157 -.00056286  00000-0 -13670-2 0  9993,2 49748  53.2172  61.4224 0002755  20.4678 304.9712 15.40500370  9638,6822.769,93.476,446.513,442.754,0.0
49748.0,STARLINK-3248,PAYLOAD,2022-01-26 14:00:01,15.4044402,0.0002889,53.217,59.8529,17.2264,357.8312,0.00070977,0.0002888,0.0,0 STARLINK-3248,1 49748U 21115AA  22026.58334491  .00028880  00000-0  70977-3 0  9990,2 49748  53.2170  59.8529 0002889  17.2264 357.8312 15.40444020  3623,6822.935,93.48,446.771,442.829,0.0
49748.0,STARLINK-3248,PAYLOAD,2022-01-26 22:00:00,15.40445913,0.0002602,53.2172,58.2805,17.8903,46.7552,0.00062835,0.0002551,0.0,0 STARLINK-3248,1 49748U 21115AA  22026.91667824  .00025510  00000-0  62835-3 0  9997,2 49748  53.2172  58.2805 0002602  17.8903  46.7552 15.40445913  9734,6822.929,93.479,446.57,443.019,0.0
49748.0,STARLINK-3248,PAYLOAD,2022-01-27 11:44:06,15.40461258,0.0002906,53.2191,55.584,13.4752,346.6331,3.5685e-05,1.063e-05,0.0,0 STARLINK-3248,1 49748U 21115AA  22027.48896616  .00001063  00000-0  35685-4 0  9994,2 49748  53.2191  55.5840 0002906  13.4752 346.6331 15.40461258  8719,6822.884,93.478,446.732,442.766,0.0
49748.0,STARLINK-3248,PAYLOAD,2022-01-27 22:00:00,15.40431773,0.0002643,53.2177,53.5691,18.591,194.7755,0.00093917,0.00038376,0.0,0 STARLINK-3248,1 49748U 21115AA  22027.91667824  .00038376  00000-0  93917-3 0  9997,2 49748  53.2177  53.5691 0002643  18.5910 194.7755 15.40431773  9885,6822.971,93.48,446.639,443.033,0.0
49748.0,STARLINK-3248,PAYLOAD,2022-01-28 14:00:01,15.40477452,0.0002898999999999,53.218,50.4299,16.793,295.7298,-0.00018403,-7.969e-05,0.0,0 STARLINK-3248,1 49748U 21115AA  22028.58334491 -.00007969  00000-0 -18403-3 0  9995,2 49748  53.2180  50.4299 0002899  16.7930 295.7298 15.40477452  3639,6822.8359999999975,93.478,446.679,442.723,0.0
49748.0,STARLINK-3248,PAYLOAD,2022-01-28 22:00:00,15.40452689,0.000269,53.2181,48.8575,19.6611,342.4754,0.00085701,0.00034993,0.0,0 STARLINK-3248,1 49748U 21115AA  22028.91667824  .00034993  00000-0  85701-3 0  9991,2 49748  53.2181  48.8575 0002690  19.6611 342.4754 15.40452689 10040,6822.909000000002,93.479,446.61,442.939,0.0
49748.0,STARLINK-3248,PAYLOAD,2022-01-29 14:00:01,15.40479971,0.0002975,53.2176,45.7168,18.6038,82.7398,-3.3411e-05,-1.779e-05,0.0,0 STARLINK-3248,1 49748U 21115AA  22029.58334491 -.00001779  00000-0 -33411-4 0  9996,2 49748  53.2176  45.7168 0002975  18.6038  82.7398 15.40479971 10148,6822.829000000002,93.477,446.724,442.664,0.0
49748.0,STARLINK-3248,PAYLOAD,2022-01-29 22:00:00,15.40533607,0.0002768999999999,53.2175,44.1438,18.8463,132.1179,-0.0092221,-0.00363139,0.0,0 STARLINK-3248,1 49748U 21115AA  22029.91667824 -.00363139  00000-0 -92221-2 0  9995,2 49748  53.2175  44.1438 0002769  18.8463 132.1179 15.40533607 10194,6822.67,93.474,446.425,442.646,0.0
49748.0,STARLINK-3248,PAYLOAD,2022-01-30 06:00:00,15.40357253,0.0002942,53.2177,42.5758,16.3022,184.1735,-0.01724,-0.00657818,0.0,0 STARLINK-3248,1 49748U 21115AA  22030.25001157 -.00657818  00000-0 -17240-1 0  9992,2 49748  53.2177  42.5758 0002942  16.3022 184.1735 15.40357253 10242,6823.191,93.485,447.064,443.049,0.0
49748.0,STARLINK-3248,PAYLOAD,2022-01-30 14:00:01,15.39894573,0.0002438,53.2172,41.01,22.817,226.7265,-0.0177139999999999,-0.00664989,0.0,0 STARLINK-3248,1 49748U 21115AA  22030.58334491 -.00664989  00000-0 -17714-1 0  9991,2 49748  53.2172  41.0100 0002438  22.8170 226.7265 15.39894573 10293,6824.558000000001,93.513,448.087,444.759,0.0
49748.0,STARLINK-3248,PAYLOAD,2022-01-30 22:00:00,15.39424554,0.0002551,53.2174,39.4436,18.2757,279.8902,-0.0178259999999999,-0.006593,0.0,0 STARLINK-3248,1 49748U 21115AA  22030.91667824 -.00659300  00000-0 -17826-1 0  9992,2 49748  53.2174  39.4436 0002551  18.2757 279.8902 15.39424554  3640,6825.946999999999,93.541,449.55300000000005,446.071,0.0
49748.0,STARLINK-3248,PAYLOAD,2022-01-31 14:00:01,15.38492474,0.0002021,53.2173,36.3195,332.3578,61.4281,-0.018352,-0.00658231,0.0,0 STARLINK-3248,1 49748U 21115AA  22031.58335648 -.00658231  00000-0 -18352-1 0  9999,2 49748  53.2173  36.3195 0002021 332.3578  61.4281 15.38492474 10457,6828.704000000002,93.598,451.949,449.18800000000016,0.0
49748.0,STARLINK-3248,PAYLOAD,2022-01-31 22:00:01,15.38030624,0.0003098,53.2174,34.7566,321.7797,118.9441,-0.018932,-0.00668251,0.0,0 STARLINK-3248,1 49748U 21115AA  22031.91668981 -.00668251  00000-0 -18932-1 0  9992,2 49748  53.2174  34.7566 0003098 321.7797 118.9441 15.38030624  3646,6830.07,93.626,454.051,449.82,0.0
49748.0,STARLINK-3248,PAYLOAD,2022-02-01 06:00:00,15.37566614,0.0005579,53.2174,33.1982,300.9954,186.0405,-0.019401,-0.00674526,0.0,0 STARLINK-3248,1 49748U 21115AA  22032.25001157 -.00674526  00000-0 -19401-1 0  9990,2 49748  53.2174  33.1982 0005579 300.9954 186.0405 15.37566614 10557,6831.445,93.654,457.121,449.49800000000016,0.0
49748.0,STARLINK-3248,PAYLOAD,2022-02-01 14:00:01,15.37083013,0.0002345,53.2171,31.6364,288.0253,244.9013,-0.018973,-0.00650481,0.0,0 STARLINK-3248,1 49748U 21115AA  22032.58335648 -.00650481  00000-0 -18973-1 0  9998,2 49748  53.2171  31.6364 0002345 288.0253 244.9013 15.37083013  3612,6832.877,93.684,456.345,453.14,0.0
49748.0,STARLINK-3248,PAYLOAD,2022-02-01 22:00:00,15.36628125,8.53e-05,53.2172,30.0794,339.9531,238.1595,-0.01976,-0.00666152,0.0,0 STARLINK-3248,1 49748U 21115AA  22032.91667824 -.00666152  00000-0 -19760-1 0  9996,2 49748  53.2172  30.0794 0000853 339.9531 238.1595 15.36628125  3630,6834.226,93.712,456.674,455.508,0.0
49748.0,STARLINK-3248,PAYLOAD,2022-02-02 14:00:01,15.35694623,0.0001212,53.2172,26.9682,78.4581,228.4835,-0.020275,-0.00663437,0.0,0 STARLINK-3248,1 49748U 21115AA  22033.58334491 -.00663437  00000-0 -20275-1 0  9997,2 49748  53.2172  26.9682 0001212  78.4581 228.4835 15.35694623 10766,6836.995,93.769,459.689,458.031,0.0
